{"type":"FeatureCollection","metadata":{"generated":1785922703000,"url":"https://earthquake.usgs.gov/earthquakes/feed/v1.0/summary/4.5_hour.geojson","title":"USGS Magnitude 4.5+ Earthquakes, Past Hour","status":200,"api":"2.7.0","count":1},"features":[{"type":"Feature","properties":{"mag":4.8,"place":"45 km SSW of Sarangani, Philippines","time":1785921427881,"updated":1785922538040,"tz":null,"url":"https://earthquake.usgs.gov/earthquakes/eventpage/us6000ti9k","detail":"https://earthquake.usgs.gov/earthquakes/feed/v1.0/detail/us6000ti9k.geojson","felt":null,"cdi":null,"mmi":null,"alert":null,"status":"reviewed","tsunami":0,"sig":354,"net":"us","code":"6000ti9k","ids":",us6000ti9k,","sources":",us,","types":",origin,phase-data,","nst":42,"dmin":2.032,"rms":0.77,"gap":101,"magType":"mb","type":"earthquake","title":"M 4.8 - 45 km SSW of Sarangani, Philippines"},"geometry":{"type":"Point","coordinates":[125.2544,5.0507,35]},"id":"us6000ti9k"}]}